% \input{\pSections "sec-tle"}

\section{Geo TLE}
Sample file \href{https://celestrak.org/NORAD/elements/geo.txt}{https://celestrak.org/NORAD/elements/geo.txt}

\begin{alltt}
\texttt{\textbf{TDRS 3}}
1 19548U 88091B   24325.92885469 -.00000302  00000+0  00000+0 0  9994
2 19548  13.0423 344.8375 0040075 335.1643  25.8602  1.00266141119620
\texttt{\textbf{FLTSATCOM 8 (USA 46)}}
1 20253U 89077A   24325.77379124 -.00000369  00000+0  00000+0 0  9996
2 20253  12.5869 354.5997 0006168 257.7869 212.2336  1.00276169254813
\texttt{\textbf{SKYNET 4C}}
1 20776U 90079A   24325.76378818  .00000123  00000+0  00000+0 0  9995
2 20776  13.5248 353.7193 0003851 254.3871 120.4274  1.00272744125145
\end{alltt}


\endinput  %  ==  ==  ==  ==  ==  ==  ==  ==  ==
